STARLINK-1165
1 15059C 20006R   21326.06146742  .00003396  00000-0  22743-3 0  3261
2 15059  53.0526 128.4671 0001455  67.9015 322.7771 15.06408986    15
